{
  "norad_id": 62184,
  "name": "STARLINK-32581",
  "history": [
    {
      "epoch": "2026-03-28T11:49:34.021632Z",
      "apogee_km": 574.1913748128309,
      "perigee_km": 569.855169818934,
      "latitude_deg": 4.0699100380458954e-05,
      "longitude_deg": 103.65244079101149,
      "height_km": 574.4419262948917,
      "semi_major_axis_km": 6950.160272315882,
      "eccentricity": 0.00031195,
      "inclination_deg": 70.0021,
      "raan_deg": 106.9566,
      "arg_perigee_deg": 270.2398,
      "mean_anomaly_deg": 89.8404,
      "mean_motion_rev_day": 14.98340548
    },
    {
      "epoch": "2026-03-29T03:50:53.953152Z",
      "apogee_km": 574.4533935241589,
      "perigee_km": 569.5368700541303,
      "latitude_deg": -6.786798485002773e-05,
      "longitude_deg": -139.02265512662692,
      "height_km": 574.4206698011019,
      "semi_major_axis_km": 6950.132131789144,
      "eccentricity": 0.0003537,
      "inclination_deg": 70.0003,
      "raan_deg": 105.2726,
      "arg_perigee_deg": 270.0577,
      "mean_anomaly_deg": 90.0176,
      "mean_motion_rev_day": 14.98349648
    },
    {
      "epoch": "2026-03-30T02:16:46.232256Z",
      "apogee_km": 574.1969222313855,
      "perigee_km": 569.7641372709104,
      "latitude_deg": 3.5114065067128195e-05,
      "longitude_deg": -118.76786309755298,
      "height_km": 574.3817111871192,
      "semi_major_axis_km": 6950.117529751148,
      "eccentricity": 0.0003189,
      "inclination_deg": 70.0017,
      "raan_deg": 102.9164,
      "arg_perigee_deg": 270.6876,
      "mean_anomaly_deg": 89.3918,
      "mean_motion_rev_day": 14.9835437
    },
    {
      "epoch": "2026-03-30T07:05:10.674816Z",
      "apogee_km": 574.4965877729774,
      "perigee_km": 569.5633592551767,
      "latitude_deg": 5.9193329218409404e-05,
      "longitude_deg": 168.42689401673087,
      "height_km": 574.4879594396167,
      "semi_major_axis_km": 6950.166973514077,
      "eccentricity": 0.0003549,
      "inclination_deg": 70.0003,
      "raan_deg": 102.4104,
      "arg_perigee_deg": 269.3036,
      "mean_anomaly_deg": 90.7717,
      "mean_motion_rev_day": 14.98338381
    },
    {
      "epoch": "2026-03-30T10:17:26.734560Z",
      "apogee_km": 574.4479029117929,
      "perigee_km": 569.58696490072,
      "latitude_deg": -3.456826206386252e-05,
      "longitude_deg": 119.8914420930566,
      "height_km": 574.4863238837229,
      "semi_major_axis_km": 6950.154433906257,
      "eccentricity": 0.0003497,
      "inclination_deg": 70.0005,
      "raan_deg": 102.0735,
      "arg_perigee_deg": 269.0357,
      "mean_anomaly_deg": 91.0401,
      "mean_motion_rev_day": 14.98342436
    },
    {
      "epoch": "2026-03-30T18:18:07.172064Z",
      "apogee_km": 574.3455814109038,
      "perigee_km": 569.7174641915699,
      "latitude_deg": 3.880742994908279e-05,
      "longitude_deg": -1.447830194930961,
      "height_km": 574.5086199692819,
      "semi_major_axis_km": 6950.168522801237,
      "eccentricity": 0.00033295,
      "inclination_deg": 70.0006,
      "raan_deg": 101.2317,
      "arg_perigee_deg": 268.78,
      "mean_anomaly_deg": 91.2978,
      "mean_motion_rev_day": 14.9833788
    },
    {
      "epoch": "2026-03-31T18:20:08.025792Z",
      "apogee_km": 574.2570383605289,
      "perigee_km": 569.7894753474229,
      "latitude_deg": 9.470237057352066e-07,
      "longitude_deg": -5.463423419602351,
      "height_km": 574.3637513798673,
      "semi_major_axis_km": 6950.160256853976,
      "eccentricity": 0.0003214,
      "inclination_deg": 70.0007,
      "raan_deg": 98.7067,
      "arg_perigee_deg": 272.2376,
      "mean_anomaly_deg": 87.8415,
      "mean_motion_rev_day": 14.98340553
    },
    {
      "epoch": "2026-04-01T10:21:28.594944Z",
      "apogee_km": 574.4363974191183,
      "perigee_km": 569.6421658200579,
      "latitude_deg": 2.8008336650688083e-06,
      "longitude_deg": 111.85885753676517,
      "height_km": 574.3921668471562,
      "semi_major_axis_km": 6950.176281619588,
      "eccentricity": 0.0003449,
      "inclination_deg": 70.0002,
      "raan_deg": 97.0227,
      "arg_perigee_deg": 271.7931,
      "mean_anomaly_deg": 88.2833,
      "mean_motion_rev_day": 14.98335371
    }
  ]
}